STARLINK-31492          
1 59212U 24046M   26068.94020663 -.00000047  00000+0  10550-4 0  9993
2 59212  53.1606 154.4719 0000953  94.1692 265.9417 15.30189057113076
AL MUNTHER              
1 63240U 25052AG  26068.64540749  .00017933  00000+0  65015-3 0  9992
2 63240  97.4001 323.9152 0008027 130.7043 229.4895 15.28381521 54798
